{"type": "FeatureCollection", "features": [ {"type": "Feature", "properties": {"norad_id": 67001, "name": "2025-292J", "group": "last-30-days", "lat": 64.25540661056178, "lon": -90.00547045553972, "alt_km": 549.0393761640471, "timestamp": "2025-12-27T09:28:55.186127+00:00", "meta": {"OBJECT_NAME": "2025-292J", "OBJECT_ID": "2025-292J", "EPOCH": "2025-12-27T04:11:03.749280", "MEAN_MOTION": 15.04459542, "ECCENTRICITY": 0.0015218, "INCLINATION": 97.6524, "RA_OF_ASC_NODE": 73.5865, "ARG_OF_PERICENTER": 217.109, "MEAN_ANOMALY": 142.9085, "EPHEMERIS_TYPE": 0, "CLASSIFICATION_TYPE": "U", "NORAD_CAT_ID": 67001, "ELEMENT_SET_NO": 999, "REV_AT_EPOCH": 256, "BSTAR": 0.0005077, "MEAN_MOTION_DOT": 7.059e-05, "MEAN_MOTION_DDOT": 0}, "tle": {"line1": "1 67001U 25292J   25361.17434895  .00007059  00000+0  50770-3 0  9994", "line2": "2 67001  97.6524  73.5865 0015218 217.1090 142.9085 15.04459542  2561"}}, "geometry": {"type": "Point", "coordinates": [-90.00547045553972, 64.25540661056178]}}, {"type": "Feature", "properties": {"norad_id": 67002, "name": "ZK-1A R/B", "group": "last-30-days", "lat": 77.14245687944491, "lon": -68.14454266587695, "alt_km": 499.0553510787886, "timestamp": "2025-12-27T09:28:55.186137+00:00", "meta": {"OBJECT_NAME": "ZK-1A R/B", "OBJECT_ID": "2025-292K", "EPOCH": "2025-12-27T04:25:51.055680", "MEAN_MOTION": 15.59229474, "ECCENTRICITY": 0.0203542, "INCLINATION": 97.7194, "RA_OF_ASC_NODE": 75.1645, "ARG_OF_PERICENTER": 312.5496, "MEAN_ANOMALY": 45.8729, "EPHEMERIS_TYPE": 0, "CLASSIFICATION_TYPE": "U", "NORAD_CAT_ID": 67002, "ELEMENT_SET_NO": 999, "REV_AT_EPOCH": 264, "BSTAR": 0.00072117, "MEAN_MOTION_DOT": 0.0015794, "MEAN_MOTION_DDOT": 8.9456e-06}, "tle": {"line1": "1 67002U 25292K   25361.18461870  .00157940  89456-5  72117-3 0  9991", "line2": "2 67002  97.7194  75.1645 0203542 312.5496  45.8729 15.59229474  2643"}}, "geometry": {"type": "Point", "coordinates": [-68.14454266587695, 77.14245687944491]}}, {"type": "Feature", "properties": {"norad_id": 67003, "name": "STARLINK-35660", "group": "last-30-days", "lat": -28.873282914370506, "lon": 113.117021705852, "alt_km": 363.0994998076567, "timestamp": "2025-12-27T09:28:55.186147+00:00", "meta": {"OBJECT_NAME": "STARLINK-35660", "OBJECT_ID": "2025-293A", "EPOCH": "2025-12-27T04:00:01.998720", "MEAN_MOTION": 15.707793, "ECCENTRICITY": 0.0003775, "INCLINATION": 69.998, "RA_OF_ASC_NODE": 282.1715, "ARG_OF_PERICENTER": 269.2183, "MEAN_ANOMALY": 90.8392, "EPHEMERIS_TYPE": 0, "CLASSIFICATION_TYPE": "U", "NORAD_CAT_ID": 67003, "ELEMENT_SET_NO": 999, "REV_AT_EPOCH": 248, "BSTAR": -0.01455, "MEAN_MOTION_DOT": -0.0161254, "MEAN_MOTION_DDOT": 0}, "tle": {"line1": "1 67003U 25293A   25361.16668980 -.01612540  00000+0 -14550-1 0  9994", "line2": "2 67003  69.9980 282.1715 0003775 269.2183  90.8392 15.70779300  2482"}}, "geometry": {"type": "Point", "coordinates": [113.117021705852, -28.873282914370506]}}, {"type": "Feature", "properties": {"norad_id": 67004, "name": "STARLINK-35913", "group": "last-30-days", "lat": -30.7982036948973, "lon": 114.06814979817833, "alt_km": 363.23645480188225, "timestamp": "2025-12-27T09:28:55.186158+00:00", "meta": {"OBJECT_NAME": "STARLINK-35913", "OBJECT_ID": "2025-293B", "EPOCH": "2025-12-27T04:00:01.998720", "MEAN_MOTION": 15.70776077, "ECCENTRICITY": 0.0003657, "INCLINATION": 69.9981, "RA_OF_ASC_NODE": 282.1696, "ARG_OF_PERICENTER": 269.8282, "MEAN_ANOMALY": 92.3289, "EPHEMERIS_TYPE": 0, "CLASSIFICATION_TYPE": "U", "NORAD_CAT_ID": 67004, "ELEMENT_SET_NO": 999, "REV_AT_EPOCH": 248, "BSTAR": -0.014625, "MEAN_MOTION_DOT": -0.01619657, "MEAN_MOTION_DDOT": 0}, "tle": {"line1": "1 67004U 25293B   25361.16668980 -.01619657  00000+0 -14625-1 0  9994", "line2": "2 67004  69.9981 282.1696 0003657 269.8282  92.3289 15.70776077  2487"}}, "geometry": {"type": "Point", "coordinates": [114.06814979817833, -30.7982036948973]}}, {"type": "Feature", "properties": {"norad_id": 67005, "name": "STARLINK-36148", "group": "last-30-days", "lat": -32.77310629855187, "lon": 115.0876544420839, "alt_km": 363.3275900233348, "timestamp": "2025-12-27T09:28:55.186170+00:00", "meta": {"OBJECT_NAME": "STARLINK-36148", "OBJECT_ID": "2025-293C", "EPOCH": "2025-12-27T04:00:01.998720", "MEAN_MOTION": 15.70762923, "ECCENTRICITY": 0.0003785, "INCLINATION": 69.9981, "RA_OF_ASC_NODE": 282.1668, "ARG_OF_PERICENTER": 271.4179, "MEAN_ANOMALY": 92.9112, "EPHEMERIS_TYPE": 0, "CLASSIFICATION_TYPE": "U", "NORAD_CAT_ID": 67005, "ELEMENT_SET_NO": 999, "REV_AT_EPOCH": 248, "BSTAR": -0.014642, "MEAN_MOTION_DOT": -0.01620616, "MEAN_MOTION_DDOT": 0}, "tle": {"line1": "1 67005U 25293C   25361.16668980 -.01620616  00000+0 -14642-1 0  9991", "line2": "2 67005  69.9981 282.1668 0003785 271.4179  92.9112 15.70762923  2489"}}, "geometry": {"type": "Point", "coordinates": [115.0876544420839, -32.77310629855187]}}, {"type": "Feature", "properties": {"norad_id": 67006, "name": "STARLINK-36156", "group": "last-30-days", "lat": -37.04849345387763, "lon": 117.47952721619485, "alt_km": 363.56206078142986, "timestamp": "2025-12-27T09:28:55.186183+00:00", "meta": {"OBJECT_NAME": "STARLINK-36156", "OBJECT_ID": "2025-293D", "EPOCH": "2025-12-27T04:00:01.998720", "MEAN_MOTION": 15.70710749, "ECCENTRICITY": 0.0003787, "INCLINATION": 69.9982, "RA_OF_ASC_NODE": 282.1608, "ARG_OF_PERICENTER": 272.152, "MEAN_ANOMALY": 96.9286, "EPHEMERIS_TYPE": 0, "CLASSIFICATION_TYPE": "U", "NORAD_CAT_ID": 67006, "ELEMENT_SET_NO": 999, "REV_AT_EPOCH": 248, "BSTAR": -0.014637, "MEAN_MOTION_DOT": -0.01617004, "MEAN_MOTION_DDOT": 0}, "tle": {"line1": "1 67006U 25293D   25361.16668980 -.01617004  00000+0 -14637-1 0  9993", "line2": "2 67006  69.9982 282.1608 0003787 272.1520  96.9286 15.70710749  2480"}}, "geometry": {"type": "Point", "coordinates": [117.47952721619485, -37.04849345387763]}}, {"type": "Feature", "properties": {"norad_id": 67007, "name": "STARLINK-36123", "group": "last-30-days", "lat": -35.03052049964966, "lon": 116.31518859472392, "alt_km": 363.44946286462255, "timestamp": "2025-12-27T09:28:55.186194+00:00", "meta": {"OBJECT_NAME": "STARLINK-36123", "OBJECT_ID": "2025-293E", "EPOCH": "2025-12-27T04:00:01.998720", "MEAN_MOTION": 15.70734994, "ECCENTRICITY": 0.0003741, "INCLINATION": 69.9982, "RA_OF_ASC_NODE": 282.1628, "ARG_OF_PERICENTER": 270.6683, "MEAN_ANOMALY": 96.1645, "EPHEMERIS_TYPE": 0, "CLASSIFICATION_TYPE": "U", "NORAD_CAT_ID": 67007, "ELEMENT_SET_NO": 999, "REV_AT_EPOCH": 248, "BSTAR": -0.014732, "MEAN_MOTION_DOT": -0.01627709, "MEAN_MOTION_DDOT": 0}, "tle": {"line1": "1 67007U 25293E   25361.16668980 -.01627709  00000+0 -14732-1 0  9993", "line2": "2 67007  69.9982 282.1628 0003741 270.6683  96.1645 15.70734994  2485"}}, "geometry": {"type": "Point", "coordinates": [116.31518859472392, -35.03052049964966]}}, {"type": "Feature", "properties": {"norad_id": 67008, "name": "STARLINK-36163", "group": "last-30-days", "lat": -39.385065616027106, "lon": 118.91602542167774, "alt_km": 363.60330977107697, "timestamp": "2025-12-27T09:28:55.186204+00:00", "meta": {"OBJECT_NAME": "STARLINK-36163", "OBJECT_ID": "2025-293F", "EPOCH": "2025-12-27T04:00:01.998720", "MEAN_MOTION": 15.70634119, "ECCENTRICITY": 0.0003868, "INCLINATION": 69.9983, "RA_OF_ASC_NODE": 282.1573, "ARG_OF_PERICENTER": 269.4473, "MEAN_ANOMALY": 102.2839, "EPHEMERIS_TYPE": 0, "CLASSIFICATION_TYPE": "U", "NORAD_CAT_ID": 67008, "ELEMENT_SET_NO": 999, "REV_AT_EPOCH": 248, "BSTAR": -0.014242, "MEAN_MOTION_DOT": -0.01573574, "MEAN_MOTION_DDOT": 0}, "tle": {"line1": "1 67008U 25293F   25361.16668980 -.01573574  00000+0 -14242-1 0  9990", "line2": "2 67008  69.9983 282.1573 0003868 269.4473 102.2839 15.70634119  2481"}}, "geometry": {"type": "Point", "coordinates": [118.91602542167774, -39.385065616027106]}}, {"type": "Feature", "properties": {"norad_id": 67009, "name": "STARLINK-36118", "group": "last-30-days", "lat": -41.43975248762624, "lon": 120.27273835927878, "alt_km": 363.71317187346995, "timestamp": "2025-12-27T09:28:55.186214+00:00", "meta": {"OBJECT_NAME": "STARLINK-36118", "OBJECT_ID": "2025-293G", "EPOCH": "2025-12-27T04:00:01.998720", "MEAN_MOTION": 15.70644285, "ECCENTRICITY": 0.0003943, "INCLINATION": 69.9979, "RA_OF_ASC_NODE": 282.155, "ARG_OF_PERICENTER": 273.2091, "MEAN_ANOMALY": 100.8233, "EPHEMERIS_TYPE": 0, "CLASSIFICATION_TYPE": "U", "NORAD_CAT_ID": 67009, "ELEMENT_SET_NO": 999, "REV_AT_EPOCH": 242, "BSTAR": -0.01443, "MEAN_MOTION_DOT": -0.01592776, "MEAN_MOTION_DDOT": 0}, "tle": {"line1": "1 67009U 25293G   25361.16668980 -.01592776  00000+0 -14430-1 0  9995", "line2": "2 67009  69.9979 282.1550 0003943 273.2091 100.8233 15.70644285  2426"}}, "geometry": {"type": "Point", "coordinates": [120.27273835927878, -41.43975248762624]}}, {"type": "Feature", "properties": {"norad_id": 67010, "name": "STARLINK-36189", "group": "last-30-days", "lat": -45.30490920804578, "lon": 123.11014633894919, "alt_km": 363.9762394655336, "timestamp": "2025-12-27T09:28:55.186224+00:00", "meta": {"OBJECT_NAME": "STARLINK-36189", "OBJECT_ID": "2025-293H", "EPOCH": "2025-12-27T04:00:01.998720", "MEAN_MOTION": 15.70617857, "ECCENTRICITY": 0.0003538, "INCLINATION": 69.9981, "RA_OF_ASC_NODE": 282.1494, "ARG_OF_PERICENTER": 270.9235, "MEAN_ANOMALY": 107.5192, "EPHEMERIS_TYPE": 0, "CLASSIFICATION_TYPE": "U", "NORAD_CAT_ID": 67010, "ELEMENT_SET_NO": 999, "REV_AT_EPOCH": 248, "BSTAR": -0.01473, "MEAN_MOTION_DOT": -0.01620242, "MEAN_MOTION_DDOT": 0}, "tle": {"line1": "1 67010U 25293H   25361.16668980 -.01620242  00000+0 -14730-1 0  9990", "line2": "2 67010  69.9981 282.1494 0003538 270.9235 107.5192 15.70617857  2481"}}, "geometry": {"type": "Point", "coordinates": [123.11014633894919, -45.30490920804578]}}]}